{
  "type": "FeatureCollection",
  "features": [
    {
      "type": "Feature",
      "properties": {
        "ward_id": "PMC_ZONE_01",
        "ward_name": "Aundh - Baner Division",
        "zone": "PMC North-West",
        "population_proxy": 285000
      },
      "geometry": {
        "type": "Polygon",
        "coordinates": [
          [
            [
              73.75,
              18.54
            ],
            [
              73.82,
              18.54
            ],
            [
              73.82,
              18.6
            ],
            [
              73.75,
              18.6
            ],
            [
              73.75,
              18.54
            ]
          ]
        ]
      }
    },
    {
      "type": "Feature",
      "properties": {
        "ward_id": "PMC_ZONE_02",
        "ward_name": "Shivajinagar - Ghole Road Division",
        "zone": "PMC Central",
        "population_proxy": 340000
      },
      "geometry": {
        "type": "Polygon",
        "coordinates": [
          [
            [
              73.82,
              18.51
            ],
            [
              73.87,
              18.51
            ],
            [
              73.87,
              18.55
            ],
            [
              73.82,
              18.55
            ],
            [
              73.82,
              18.51
            ]
          ]
        ]
      }
    },
    {
      "type": "Feature",
      "properties": {
        "ward_id": "PMC_ZONE_03",
        "ward_name": "Yerwada - Kalas - Dhanori Division",
        "zone": "PMC North",
        "population_proxy": 310000
      },
      "geometry": {
        "type": "Polygon",
        "coordinates": [
          [
            [
              73.86,
              18.55
            ],
            [
              73.92,
              18.55
            ],
            [
              73.92,
              18.62
            ],
            [
              73.86,
              18.62
            ],
            [
              73.86,
              18.55
            ]
          ]
        ]
      }
    },
    {
      "type": "Feature",
      "properties": {
        "ward_id": "PMC_ZONE_04",
        "ward_name": "Nagar Road - Vadgaon Sheri Division",
        "zone": "PMC East",
        "population_proxy": 390000
      },
      "geometry": {
        "type": "Polygon",
        "coordinates": [
          [
            [
              73.9,
              18.52
            ],
            [
              74.02,
              18.52
            ],
            [
              74.02,
              18.58
            ],
            [
              73.9,
              18.58
            ],
            [
              73.9,
              18.52
            ]
          ]
        ]
      }
    },
    {
      "type": "Feature",
      "properties": {
        "ward_id": "PMC_ZONE_05",
        "ward_name": "Kondhwa - Wanwadi - Hadapsar Division",
        "zone": "PMC South-East",
        "population_proxy": 420000
      },
      "geometry": {
        "type": "Polygon",
        "coordinates": [
          [
            [
              73.87,
              18.45
            ],
            [
              74.0,
              18.45
            ],
            [
              74.0,
              18.52
            ],
            [
              73.87,
              18.52
            ],
            [
              73.87,
              18.45
            ]
          ]
        ]
      }
    },
    {
      "type": "Feature",
      "properties": {
        "ward_id": "PMC_ZONE_06",
        "ward_name": "Dhankawadi - Sahakarnagar - Karvenagar Division",
        "zone": "PMC South-West",
        "population_proxy": 360000
      },
      "geometry": {
        "type": "Polygon",
        "coordinates": [
          [
            [
              73.78,
              18.43
            ],
            [
              73.87,
              18.43
            ],
            [
              73.87,
              18.51
            ],
            [
              73.78,
              18.51
            ],
            [
              73.78,
              18.43
            ]
          ]
        ]
      }
    }
  ]
}